[{"OBJECT_NAME":"OBJECT A","OBJECT_ID":"2023-189A","EPOCH":"2026-03-09T22:59:06.381600","MEAN_MOTION":15.32403275,"ECCENTRICITY":0.00094831,"INCLINATION":97.4458,"RA_OF_ASC_NODE":86.5997,"ARG_OF_PERICENTER":249.5377,"MEAN_ANOMALY":110.4847,"EPHEMERIS_TYPE":0,"CLASSIFICATION_TYPE":"U","NORAD_CAT_ID":58502,"ELEMENT_SET_NO":999,"REV_AT_EPOCH":12601,"BSTAR":0.00019874471,"MEAN_MOTION_DOT":6.146e-5,"MEAN_MOTION_DDOT":0},{"OBJECT_NAME":"STARLINK-32301","OBJECT_ID":"2024-193D","EPOCH":"2026-03-09T07:16:35.172768","MEAN_MOTION":15.30203567,"ECCENTRICITY":0.00013117,"INCLINATION":53.1606,"RA_OF_ASC_NODE":93.0765,"ARG_OF_PERICENTER":78.4534,"MEAN_ANOMALY":281.6614,"EPHEMERIS_TYPE":0,"CLASSIFICATION_TYPE":"U","NORAD_CAT_ID":61664,"ELEMENT_SET_NO":999,"REV_AT_EPOCH":7646,"BSTAR":-0.00018312761,"MEAN_MOTION_DOT":-5.779e-5,"MEAN_MOTION_DDOT":0}]
